IRIDIUM 106             
1 41917U 17003A   26007.48836039  .00000015  00000+0 -15340-5 0  9993
2 41917  86.4009 155.7050 0002253  88.0327 272.1126 14.34217403470173
IRIDIUM 103             
1 41918U 17003B   26007.47567455  .00000064  00000+0  15773-4 0  9998
2 41918  86.4003 155.6104 0002209 104.8035 255.3405 14.34217182470190
IRIDIUM 109             
1 41919U 17003C   26007.48201661  .00000343  00000+0  11545-3 0  9996
2 41919  86.4004 155.6645 0002010  96.1821 263.9603 14.34217580470162
IRIDIUM 102             
1 41920U 17003D   26007.45029551  .00000335  00000+0  11253-3 0  9998
2 41920  86.4006 155.6049 0001894  94.7734 265.3678 14.34214675470249
IRIDIUM 105             
1 41921U 17003E   26007.35123442  .00000310  00000+0  10353-3 0  9995
2 41921  86.3997 124.1357 0002043  96.3692 263.7737 14.34210799472084
IRIDIUM 104             
1 41922U 17003F   26007.46298857  .00000013  00000+0 -23870-5 0  9992
2 41922  86.4011 155.6399 0001722 104.6772 255.4615 14.34217409470236
IRIDIUM 114             
1 41923U 17003G   26007.46933148  .00000364  00000+0  12292-3 0  9994
2 41923  86.4004 155.6209 0001958  99.9783 260.1634 14.34217749470217
IRIDIUM 108             
1 41924U 17003H   26007.35808435  .00000037  00000+0  62607-5 0  9997
2 41924  86.3989 124.0215 0001991  93.4061 266.7363 14.34217590472050
